STARLINK-31794          
1 59803U 24093X   25197.06673430  .00001244  00000+0  54699-4 0  9993
2 59803  43.0037 105.5048 0001134 284.0309  76.0417 15.27584993 66574
STARLINK-31824          
1 59804U 24093Y   25197.12826689  .00000420  00000+0  24792-4 0  9993
2 59804  43.0029 105.1102 0001697 283.6716  76.3947 15.27584502 66469
2024-094A               
1 59805U 24094A   25197.22028024  .00005306  00000+0  27631-3 0  9995
2 59805  97.4260 270.8362 0018059 263.2130  96.7048 15.16293650 64243
2024-094B               
1 59806U 24094B   25197.18558845  .00005066  00000+0  26159-3 0  9997
2 59806  97.4281 270.9346 0026604 170.4231 189.7515 15.16446984 64237
2024-094C               
1 59807U 24094C   25197.20208913  .00004866  00000+0  25439-3 0  9996
2 59807  97.4308 271.0010 0016425 264.0060  95.9301 15.16220599 64231
2024-094D               
1 59808U 24094D   25197.16781755  .00004960  00000+0  25899-3 0  9997
2 59808  97.4237 270.6770 0014235 262.3660  97.5957 15.16283341 64223
2024-092K               
1 59809U 24092K   25196.85389650  .00008212  00000+0  35222-3 0  9994
2 59809  97.6248 315.4848 0008869 252.1133 107.9137 15.22969333 63820
2024-095A               
1 59810U 24095A   25197.19860597  .00002874  00000+0  17905-3 0  9997
2 59810  97.5652 275.5283 0004882 100.9214 259.2565 15.10351908 63624
2024-095C               
1 59812U 24095C   25197.17464108  .00018597  00000+0  56546-3 0  9998
2 59812  97.5651 281.9658 0005769 238.3574 121.7106 15.34076913 64049
2024-095D               
1 59813U 24095D   25197.20177029  .00021919  00000+0  57705-3 0  9996
2 59813  97.5610 283.2331 0004735 232.7847 127.2966 15.38553770 64131
STARLINK-31947          
1 59835U 24097A   25197.21489684  .00002800  00000+0  11121-3 0  9996
2 59835  43.0007 169.6224 0001230 268.1453  91.9257 15.27591651 65771
STARLINK-31929          
1 59836U 24097B   25196.66626596  .00000603  00000+0  31449-4 0  9995
2 59836  43.0004 173.2451 0001564 273.4549  86.6124 15.27576077 65664
STARLINK-31927          
1 59837U 24097C   25197.03674864  .00002345  00000+0  94693-4 0  9994
2 59837  43.0024 170.8685 0001100 268.2033  91.8693 15.27579884 65696
STARLINK-31855          
1 59838U 24097D   25196.62257500  .00000697  00000+0  34849-4 0  9998
2 59838  43.0001 172.9053 0001137 269.0422  91.0299 15.27577136 65664
STARLINK-31887          
1 59839U 24097E   25197.19320664  .00001560  00000+0  66207-4 0  9997
2 59839  43.0013 170.3151 0001386 266.3241  93.7453 15.27581645 65711
STARLINK-31925          
1 59840U 24097F   25197.19544379  .00009937  00000+0  36677-3 0  9993
2 59840  43.0009 170.3364 0001496 265.0496  95.0185 15.27881528 65714
STARLINK-31852          
1 59841U 24097G   25196.19025211  .00001699  00000+0  71273-4 0  9991
2 59841  43.0012 168.7644 0001568 271.8904  88.1768 15.27569664 65679
STARLINK-31906          
1 59842U 24097H   25196.65213598  .00000275  00000+0  19522-4 0  9998
2 59842  43.0019 173.1437 0000805 268.3169  91.7591 15.27572501 65661
STARLINK-31857          
1 59843U 24097J   25197.20462659  .00001054  00000+0  47833-4 0  9997
2 59843  43.0014 169.5360 0001246 269.4146  90.6563 15.27578988 65772
STARLINK-31851          
1 59844U 24097K   25197.21876558  .00001329  00000+0  57801-4 0  9997
2 59844  43.0010 169.6498 0000857 269.0606  91.0147 15.27579457 65771
STARLINK-31903          
1 59845U 24097L   25196.89922442  .00000587  00000+0  30845-4 0  9999
2 59845  43.0022 164.6285 0001155 285.6678  74.4046 15.27575095 65787
STARLINK-31922          
1 59846U 24097M   25196.62000699  .00000437  00000+0  25410-4 0  9998
2 59846  43.0009 172.8875 0001129 266.4488  93.6234 15.27575698 65664
STARLINK-31889          
1 59847U 24097N   25197.19831715  .00054333  00000+0  19875-2 0  9993
2 59847  42.9991 170.3514 0000839 262.5685  97.5071 15.27280370 65717
STARLINK-31859          
1 59848U 24097P   25196.64410536  .00000699  00000+0  34931-4 0  9995
2 59848  43.0017 166.1499 0001457 266.6849  93.3836 15.27574838 65749
STARLINK-31895          
1 59849U 24097Q   25196.43798312  .00000447  00000+0  25782-4 0  9999
2 59849  43.0011 174.1096 0001034 275.7479  84.3255 15.27577258 65606
STARLINK-31899          
1 59850U 24097R   25196.96493090  .00000452  00000+0  25942-4 0  9998
2 59850  43.0009 171.1849 0000926 270.6209  89.4537 15.27573131 65719
STARLINK-31896          
1 59851U 24097S   25197.23035463 -.00001822  00000+0 -56740-4 0  9990
2 59851  43.0004 169.7401 0000821 263.4084  96.6674 15.27555045 65779
STARLINK-31897          
1 59852U 24097T   25197.19206039  .00010879  00000+0  32626-3 0  9991
2 59852  42.9997 138.8717 0003427 224.5965 135.4614 15.34514816 66076
STARLINK-31892          
1 59853U 24097U   25196.92139068  .00000217  00000+0  17405-4 0  9993
2 59853  43.0022 171.7207 0001185 267.1696  92.9020 15.27577313 65701
STARLINK-31891          
1 59854U 24097V   25196.66369397  .00000859  00000+0  40736-4 0  9990
2 59854  43.0019 173.2261 0001607 272.2993  87.7674 15.27577547 65662
