OBJECT_NAME,OBJECT_ID,EPOCH,MEAN_MOTION,ECCENTRICITY,INCLINATION,RA_OF_ASC_NODE,ARG_OF_PERICENTER,MEAN_ANOMALY,EPHEMERIS_TYPE,CLASSIFICATION_TYPE,NORAD_CAT_ID,ELEMENT_SET_NO,REV_AT_EPOCH,BSTAR,MEAN_MOTION_DOT,MEAN_MOTION_DDOT
STARLINK-31794,2024-093X,2025-07-16T01:36:05.843520,15.27584993,.0001134,43.0037,105.5048,284.0309,76.0417,0,U,59803,999,6657,.54699E-4,.1244E-4,0
STARLINK-31824,2024-093Y,2025-07-16T03:04:42.259296,15.27584502,.0001697,43.0029,105.1102,283.6716,76.3947,0,U,59804,999,6646,.24792E-4,.42E-5,0
2024-094A,2024-094A,2025-07-16T05:17:12.212736,15.16293650,.0018059,97.4260,270.8362,263.2130,96.7048,0,U,59805,999,6424,.27631E-3,.5306E-4,0
2024-094B,2024-094B,2025-07-16T04:27:14.842080,15.16446984,.0026604,97.4281,270.9346,170.4231,189.7515,0,U,59806,999,6423,.26159E-3,.5066E-4,0
2024-094C,2024-094C,2025-07-16T04:51:00.500832,15.16220599,.0016425,97.4308,271.0010,264.0060,95.9301,0,U,59807,999,6423,.25439E-3,.4866E-4,0
2024-094D,2024-094D,2025-07-16T04:01:39.436320,15.16283341,.0014235,97.4237,270.6770,262.3660,97.5957,0,U,59808,999,6422,.25899E-3,.496E-4,0
2024-092K,2024-092K,2025-07-15T20:29:36.657600,15.22969333,.0008869,97.6248,315.4848,252.1133,107.9137,0,U,59809,999,6382,.35222E-3,.8212E-4,0
2024-095A,2024-095A,2025-07-16T04:45:59.555808,15.10351908,.0004882,97.5652,275.5283,100.9214,259.2565,0,U,59810,999,6362,.17905E-3,.2874E-4,0
2024-095C,2024-095C,2025-07-16T04:11:28.989312,15.34076913,.0005769,97.5651,281.9658,238.3574,121.7106,0,U,59812,999,6404,.56546E-3,.18597E-3,0
2024-095D,2024-095D,2025-07-16T04:50:32.953056,15.38553770,.0004735,97.5610,283.2331,232.7847,127.2966,0,U,59813,999,6413,.57705E-3,.21919E-3,0
STARLINK-31947,2024-097A,2025-07-16T05:09:27.086976,15.27591651,.000123,43.0007,169.6224,268.1453,91.9257,0,U,59835,999,6577,.11121E-3,.28E-4,0
STARLINK-31929,2024-097B,2025-07-15T15:59:25.378944,15.27576077,.0001564,43.0004,173.2451,273.4549,86.6124,0,U,59836,999,6566,.31449E-4,.603E-5,0
STARLINK-31927,2024-097C,2025-07-16T00:52:55.082496,15.27579884,.00011,43.0024,170.8685,268.2033,91.8693,0,U,59837,999,6569,.94693E-4,.2345E-4,0
STARLINK-31855,2024-097D,2025-07-15T14:56:30.480000,15.27577136,.0001137,43.0001,172.9053,269.0422,91.0299,0,U,59838,999,6566,.34849E-4,.697E-5,0
STARLINK-31887,2024-097E,2025-07-16T04:38:13.053696,15.27581645,.0001386,43.0013,170.3151,266.3241,93.7453,0,U,59839,999,6571,.66207E-4,.156E-4,0
STARLINK-31925,2024-097F,2025-07-16T04:41:26.343456,15.27881528,.0001496,43.0009,170.3364,265.0496,95.0185,0,U,59840,999,6571,.36677E-3,.9937E-4,0
STARLINK-31852,2024-097G,2025-07-15T04:33:57.782304,15.27569664,.0001568,43.0012,168.7644,271.8904,88.1768,0,U,59841,999,6567,.71273E-4,.1699E-4,0
STARLINK-31906,2024-097H,2025-07-15T15:39:04.548672,15.27572501,.0000805,43.0019,173.1437,268.3169,91.7591,0,U,59842,999,6566,.19522E-4,.275E-5,0
STARLINK-31857,2024-097J,2025-07-16T04:54:39.737376,15.27578988,.0001246,43.0014,169.5360,269.4146,90.6563,0,U,59843,999,6577,.47833E-4,.1054E-4,0
STARLINK-31851,2024-097K,2025-07-16T05:15:01.346112,15.27579457,.0000857,43.0010,169.6498,269.0606,91.0147,0,U,59844,999,6577,.57801E-4,.1329E-4,0
STARLINK-31903,2024-097L,2025-07-15T21:34:52.989888,15.27575095,.0001155,43.0022,164.6285,285.6678,74.4046,0,U,59845,999,6578,.30845E-4,.587E-5,0
STARLINK-31922,2024-097M,2025-07-15T14:52:48.603936,15.27575698,.0001129,43.0009,172.8875,266.4488,93.6234,0,U,59846,999,6566,.2541E-4,.437E-5,0
STARLINK-31889,2024-097N,2025-07-16T04:45:34.601760,15.27280370,.0000839,42.9991,170.3514,262.5685,97.5071,0,U,59847,999,6571,.19875E-2,.54333E-3,0
STARLINK-31859,2024-097P,2025-07-15T15:27:30.703104,15.27574838,.0001457,43.0017,166.1499,266.6849,93.3836,0,U,59848,999,6574,.34931E-4,.699E-5,0
STARLINK-31895,2024-097Q,2025-07-15T10:30:41.741568,15.27577258,.0001034,43.0011,174.1096,275.7479,84.3255,0,U,59849,999,6560,.25782E-4,.447E-5,0
STARLINK-31899,2024-097R,2025-07-15T23:09:30.029760,15.27573131,.0000926,43.0009,171.1849,270.6209,89.4537,0,U,59850,999,6571,.25942E-4,.452E-5,0
STARLINK-31896,2024-097S,2025-07-16T05:31:42.640032,15.27555045,.0000821,43.0004,169.7401,263.4084,96.6674,0,U,59851,999,6577,-.5674E-4,-.1822E-4,0
STARLINK-31897,2024-097T,2025-07-16T04:36:34.017696,15.34514816,.0003427,42.9997,138.8717,224.5965,135.4614,0,U,59852,999,6607,.32626E-3,.10879E-3,0
STARLINK-31892,2024-097U,2025-07-15T22:06:48.154752,15.27577313,.0001185,43.0022,171.7207,267.1696,92.9020,0,U,59853,999,6570,.17405E-4,.217E-5,0
STARLINK-31891,2024-097V,2025-07-15T15:55:43.159008,15.27577547,.0001607,43.0019,173.2261,272.2993,87.7674,0,U,59854,999,6566,.40736E-4,.859E-5,0
